0 DELTA 1 DEB
1 07139U 73086DD  13281.58037309  .00000447  00000-0  39457-2 0  9775
2 07139 102.1325 034.7781 0060153 055.3565 014.2312 12.34140813792996
0 DELTA 1 DEB
1 07139U 73086DD  13283.61830108  .00000535  00000-0  46490-2 0  9783
2 07139 102.1327 036.7859 0059998 051.3964 068.8052 12.34144619793243
0 DELTA 1 DEB
1 07139U 73086DD  13285.81473853  .00000543  00000-0  47114-2 0  9791
2 07139 102.1331 038.9500 0059843 047.1086 107.6809 12.34146559793519
0 DELTA 1 DEB
1 07139U 73086DD  13287.98038280  .00000735  00000-0  62563-2 0  9802
2 07139 102.1332 041.0837 0059700 042.8636 009.7680 12.34148211793788
0 DELTA 1 DEB
1 07139U 73086DD  13290.26348683  .00000582  00000-0  50251-2 0  9810
2 07139 102.1332 043.3333 0059590 038.3836 073.7536 12.34150727794061
0 DELTA 1 DEB
1 07139U 73086DD  13292.27720762  .00000396  00000-0  35329-2 0  9828
2 07139 102.1329 045.3175 0059503 034.4034 020.8944 12.34150289794311
0 DELTA 1 DEB
1 07139U 73086DD  13294.54916792  .00000387  00000-0  34636-2 0  9831
2 07139 102.1327 047.5560 0059450 029.9191 035.4213 12.34153629794597
